IRIDIUM 116             
1 43072U 17083C   25016.99771699  .00000047  00000+0  96886-5 0  9998
2 43072  86.4004 177.7460 0002195  91.9466 268.1981 14.34216343370189
IRIDIUM 151             
1 43074U 17083E   25017.49878621  .00000161  00000+0  50294-4 0  9998
2 43074  86.4004 177.5832 0002146  91.0943 269.0498 14.34217715370221
IRIDIUM 134             
1 43075U 17083F   25017.53683933  .00000247  00000+0  81047-4 0  9999
2 43075  86.4005 177.5685 0002117  97.4402 262.7034 14.34218830370198
IRIDIUM 137             
1 43076U 17083G   25017.47975663  .00000520  00000+0  17853-3 0  9994
2 43076  86.4007 177.6745 0002537  88.8163 271.3323 14.34220336370251
IRIDIUM 141             
1 43077U 17083H   25017.47341578  .00000553  00000+0  19042-3 0  9995
2 43077  86.4001 177.5373 0001682  93.2918 266.8470 14.34221686370251
IRIDIUM 153             
1 43078U 17083J   25017.42558800  .00000609  00000+0  21054-3 0  9997
2 43078  86.4012 146.0851 0001319  93.6358 266.4989 14.34223326371351
IRIDIUM 131             
1 43079U 17083K   25017.39096238  .00000100  00000+0  28520-4 0  9998
2 43079  86.4007 177.7229 0002017  90.6091 269.5336 14.34217323370172
